******** Week 937 almanac for PRN-01 ********
ID:                         01
Health:                     000
Eccentricity:               4.9304962158E-004
Time of Applicability(s):  516096.0000
Orbital Inclination(rad):   0.0266229556
Rate of Right Ascen(r/s):   1.1543338000E-009
SQRT(A)  (m 1/2):           6493.331543
Right Ascen at Week(rad):  -2.4528188000E-001
Argument of Perigee(rad):   3.019694361
Mean Anom(rad):            -3.1837554000E-001
Af0(s):                     8.8119510000E-004
Af1(s/s):                   0.0000000000E+000
week:                        937

******** Week 937 almanac for PRN-10 ********
ID:                         10
Health:                     000
Eccentricity:               9.3946456909E-003
Time of Applicability(s):  344064.0000
Orbital Inclination(rad):  -0.0807377232
Rate of Right Ascen(r/s):  -2.5372485400E-009
SQRT(A)  (m 1/2):           6492.984863
Right Ascen at Week(rad):  -2.8396444890E+000
Argument of Perigee(rad):  -2.434902385
Mean Anom(rad):             5.7173329000E-001
Af0(s):                    -6.1035160000E-005
Af1(s/s):                  -1.4551900000E-011
week:                        937

******** Week 937 almanac for PRN-11 ********
ID:                         11
Health:                     000
Eccentricity:               2.3088455200E-003
Time of Applicability(s):  294912.0000
Orbital Inclination(rad):   0.0425559826
Rate of Right Ascen(r/s):  -6.9717189700E-009
SQRT(A)  (m 1/2):           5282.587402
Right Ascen at Week(rad):  -1.9205989990E+000
Argument of Perigee(rad):  -1.681483003
Mean Anom(rad):            -3.8533627400E-001
Af0(s):                     3.1566620000E-004
Af1(s/s):                   1.8189900000E-011
week:                        937

******** Week 937 almanac for PRN-12 ********
ID:                         12
Health:                     000
Eccentricity:               1.4019012451E-003
Time of Applicability(s):  344064.0000
Orbital Inclination(rad):   0.0409680728
Rate of Right Ascen(r/s):  -7.0288642100E-009
SQRT(A)  (m 1/2):           5282.579102
Right Ascen at Week(rad):  -1.9334187490E+000
Argument of Perigee(rad):  -1.609995603
Mean Anom(rad):             7.2626312900E-001
Af0(s):                     8.1920620000E-004
Af1(s/s):                  -1.0913900000E-011
week:                        937

******** Week 937 almanac for PRN-13 ********
ID:                         13
Health:                     000
Eccentricity:               4.8871040344E-003
Time of Applicability(s):  344064.0000
Orbital Inclination(rad):   0.0860167743
Rate of Right Ascen(r/s):  -1.5314923600E-009
SQRT(A)  (m 1/2):           6493.679688
Right Ascen at Week(rad):  -6.6591918600E-001
Argument of Perigee(rad):  -2.402043888
Mean Anom(rad):            -1.6026646280E+000
Af0(s):                     3.9768220000E-004
Af1(s/s):                   3.6379800000E-012
week:                        937

******** Week 937 almanac for PRN-14 ********
ID:                         14
Health:                     000
Eccentricity:               1.0485649109E-003
Time of Applicability(s):  278528.0000
Orbital Inclination(rad):   0.0312968033
Rate of Right Ascen(r/s):  -6.7317089700E-009
SQRT(A)  (m 1/2):           5282.578613
Right Ascen at Week(rad):   1.3671416500E-001
Argument of Perigee(rad):  -0.325274334
Mean Anom(rad):             2.4854383600E-001
Af0(s):                    -2.1076200000E-004
Af1(s/s):                   8.0035500000E-011
week:                        937

******** Week 937 almanac for PRN-15 ********
ID:                         15
Health:                     000
Eccentricity:               2.1969318390E-002
Time of Applicability(s):  421888.0000
Orbital Inclination(rad):  -0.1488680418
Rate of Right Ascen(r/s):  -1.2090789300E-007
SQRT(A)  (m 1/2):           5704.388184
Right Ascen at Week(rad):   3.0563582250E+000
Argument of Perigee(rad):  -1.414647868
Mean Anom(rad):             2.1552302740E+000
Af0(s):                    -9.0217590000E-004
Af1(s/s):                  -1.3060300000E-009
week:                        937

******** Week 937 almanac for PRN-16 ********
ID:                         16
Health:                     000
Eccentricity:               6.3285827637E-003
Time of Applicability(s):  344064.0000
Orbital Inclination(rad):   0.0186534461
Rate of Right Ascen(r/s):  -1.9886542600E-009
SQRT(A)  (m 1/2):           6493.823242
Right Ascen at Week(rad):   1.4932546470E+000
Argument of Perigee(rad):  -2.303255675
Mean Anom(rad):             2.6992223300E+000
Af0(s):                    -2.3746490000E-004
Af1(s/s):                  -2.1827900000E-011
week:                        937

******** Week 937 almanac for PRN-19 ********
ID:                         19
Health:                     000
Eccentricity:               7.1811676025E-004
Time of Applicability(s):  344064.0000
Orbital Inclination(rad):   0.0340292066
Rate of Right Ascen(r/s):  -6.4231246900E-009
SQRT(A)  (m 1/2):           5282.586426
Right Ascen at Week(rad):   1.3750400100E-001
Argument of Perigee(rad):  -1.104800228
Mean Anom(rad):             7.2638260000E-002
Af0(s):                    -9.4890590000E-004
Af1(s/s):                   7.2759600000E-012
week:                        937

******** Week 937 almanac for PRN-02 ********
ID:                         02
Health:                     000
Eccentricity:               8.3589553833E-004
Time of Applicability(s):  344064.0000
Orbital Inclination(rad):   0.0368095468
Rate of Right Ascen(r/s):   9.1432380000E-011
SQRT(A)  (m 1/2):           6493.382324
Right Ascen at Week(rad):  -7.6805774000E-002
Argument of Perigee(rad):  -1.269673202
Mean Anom(rad):             2.7694390270E+000
Af0(s):                     2.6988980000E-004
Af1(s/s):                   3.2741800000E-011
week:                        937

******** Week 937 almanac for PRN-20 ********
ID:                         20
Health:                     000
Eccentricity:               5.2309036255E-004
Time of Applicability(s):  344064.0000
Orbital Inclination(rad):   0.0340172224
Rate of Right Ascen(r/s):  -6.4231246900E-009
SQRT(A)  (m 1/2):           5282.588867
Right Ascen at Week(rad):   1.3813467000E-001
Argument of Perigee(rad):  -0.482392766
Mean Anom(rad):             1.8920057600E-001
Af0(s):                     1.0490420000E-005
Af1(s/s):                  -3.6379800000E-011
week:                        937

******** Week 937 almanac for PRN-21 ********
ID:                         21
Health:                     000
Eccentricity:               4.9400329590E-004
Time of Applicability(s):  344064.0000
Orbital Inclination(rad):   0.0332981689
Rate of Right Ascen(r/s):  -6.4231246900E-009
SQRT(A)  (m 1/2):           5282.585449
Right Ascen at Week(rad):   1.3924695600E-001
Argument of Perigee(rad):  -0.795867882
Mean Anom(rad):            -1.8115178350E+000
Af0(s):                    -9.6702580000E-004
Af1(s/s):                   0.0000000000E+000
week:                        937

******** Week 937 almanac for PRN-22 ********
ID:                         22
Health:                     000
Eccentricity:               3.9386749268E-004
Time of Applicability(s):  344064.0000
Orbital Inclination(rad):   0.0333101531
Rate of Right Ascen(r/s):  -6.4231246900E-009
SQRT(A)  (m 1/2):           5282.586914
Right Ascen at Week(rad):   1.3916606300E-001
Argument of Perigee(rad):   0.377287743
Mean Anom(rad):            -2.2039907140E+000
Af0(s):                    -1.7833710000E-004
Af1(s/s):                   1.4551900000E-011
week:                        937

******** Week 937 almanac for PRN-23 ********
ID:                         23
Health:                     000
Eccentricity:               2.4509429932E-004
Time of Applicability(s):  344064.0000
Orbital Inclination(rad):   0.0024447819
Rate of Right Ascen(r/s):  -6.7659961200E-009
SQRT(A)  (m 1/2):           5282.594238
Right Ascen at Week(rad):   2.2322937080E+000
Argument of Perigee(rad):   0.689482045
Mean Anom(rad):            -1.3763459110E+000
Af0(s):                    -8.0108640000E-004
Af1(s/s):                   7.2759600000E-012
week:                        937

******** Week 937 almanac for PRN-24 ********
ID:                         24
Health:                     000
Eccentricity:               8.6212158203E-004
Time of Applicability(s):  344064.0000
Orbital Inclination(rad):   0.0024387898
Rate of Right Ascen(r/s):  -6.7659961200E-009
SQRT(A)  (m 1/2):           5282.583984
Right Ascen at Week(rad):   2.2321087020E+000
Argument of Perigee(rad):   0.833209603
Mean Anom(rad):             4.0960583000E-002
Af0(s):                     7.1239470000E-004
Af1(s/s):                   3.6379800000E-011
week:                        937

******** Week 937 almanac for PRN-25 ********
ID:                         25
Health:                     000
Eccentricity:               6.2036514282E-004
Time of Applicability(s):  344064.0000
Orbital Inclination(rad):   0.0039128494
Rate of Right Ascen(r/s):  -6.7659961200E-009
SQRT(A)  (m 1/2):           5282.567383
Right Ascen at Week(rad):   2.2082065400E+000
Argument of Perigee(rad):   0.775744121
Mean Anom(rad):            -7.1118884700E-001
Af0(s):                     2.8324130000E-004
Af1(s/s):                   7.2759600000E-012
week:                        937

